[{"OBJECT_NAME":"STARLINK-30859","OBJECT_ID":"2023-177W","EPOCH":"2026-03-09T22:00:01.999584","MEAN_MOTION":15.26762615,"ECCENTRICITY":0.00017814,"INCLINATION":43.0018,"RA_OF_ASC_NODE":349.5654,"ARG_OF_PERICENTER":272.5409,"MEAN_ANOMALY":276.7587,"EPHEMERIS_TYPE":0,"CLASSIFICATION_TYPE":"U","NORAD_CAT_ID":58371,"ELEMENT_SET_NO":999,"REV_AT_EPOCH":553,"BSTAR":-0.0012994336,"MEAN_MOTION_DOT":-0.00034976,"MEAN_MOTION_DDOT":0},{"OBJECT_NAME":"FLOCK 4G-5","OBJECT_ID":"2025-009BG","EPOCH":"2026-03-09T10:57:11.608704","MEAN_MOTION":15.28679529,"ECCENTRICITY":0.00020946,"INCLINATION":97.4058,"RA_OF_ASC_NODE":151.2478,"ARG_OF_PERICENTER":314.5072,"MEAN_ANOMALY":45.5996,"EPHEMERIS_TYPE":0,"CLASSIFICATION_TYPE":"U","NORAD_CAT_ID":62663,"ELEMENT_SET_NO":999,"REV_AT_EPOCH":6369,"BSTAR":0.00040688068,"MEAN_MOTION_DOT":0.00011278,"MEAN_MOTION_DDOT":0}]
